{
  "type": "FeatureCollection",
  "features": [
    {
      "type": "Feature",
      "properties": {
        "norad_id": 34560,
        "name": "COSMOS 2251 DEB",
        "group": "cosmos-2251-debris",
        "lat": -58.7103156454736,
        "lon": 91.74504301606532,
        "alt_km": 661.0195194050502,
        "timestamp": "2025-12-24T03:53:30.041816+00:00",
        "meta_object_name": "COSMOS 2251 DEB",
        "meta_object_id": "1993-036UW",
        "meta_epoch": "2025-12-22T08:17:49.177248",
        "meta_mean_motion": 14.72366661,
        "meta_eccentricity": 0.00139462,
        "meta_inclination": 74.0172,
        "meta_ra_of_asc_node": 123.4199,
        "meta_arg_of_pericenter": 205.974,
        "meta_mean_anomaly": 186.9081,
        "meta_ephemeris_type": 0,
        "meta_classification_type": "U",
        "meta_norad_cat_id": 34560,
        "meta_element_set_no": 999,
        "meta_rev_at_epoch": 88393,
        "meta_bstar": 0.0022337024,
        "meta_mean_motion_dot": 0.0001416,
        "meta_mean_motion_ddot": 0,
        "tle_line1": "1 34560U 93036UW  25356.34570807  .00014160  00000+0  22337-2 0  9994",
        "tle_line2": "2 34560  74.0172 123.4199 0013946 205.9740 186.9081 14.72366661883936"
      },
      "geometry": {
        "type": "Point",
        "coordinates": [
          91.74504301606532,
          -58.7103156454736
        ]
      }
    },
    {
      "type": "Feature",
      "properties": {
        "norad_id": 34563,
        "name": "COSMOS 2251 DEB",
        "group": "cosmos-2251-debris",
        "lat": 73.02932738499341,
        "lon": -107.90276395449328,
        "alt_km": 739.319058938232,
        "timestamp": "2025-12-24T03:53:30.041826+00:00",
        "meta_object_name": "COSMOS 2251 DEB",
        "meta_object_id": "1993-036UZ",
        "meta_epoch": "2025-12-22T13:37:02.712864",
        "meta_mean_motion": 14.46538441,
        "meta_eccentricity": 0.00139208,
        "meta_inclination": 74.0365,
        "meta_ra_of_asc_node": 185.3597,
        "meta_arg_of_pericenter": 278.8419,
        "meta_mean_anomaly": 143.9121,
        "meta_ephemeris_type": 0,
        "meta_classification_type": "U",
        "meta_norad_cat_id": 34563,
        "meta_element_set_no": 999,
        "meta_rev_at_epoch": 88339,
        "meta_bstar": 0.00036718775,
        "meta_mean_motion_dot": 1.297e-05,
        "meta_mean_motion_ddot": 0,
        "tle_line1": "1 34563U 93036UZ  25356.56739251  .00001297  00000+0  36719-3 0  9998",
        "tle_line2": "2 34563  74.0365 185.3597 0013920 278.8419 143.9121 14.46538441883392"
      },
      "geometry": {
        "type": "Point",
        "coordinates": [
          -107.90276395449328,
          73.02932738499341
        ]
      }
    },
    {
      "type": "Feature",
      "properties": {
        "norad_id": 34564,
        "name": "COSMOS 2251 DEB",
        "group": "cosmos-2251-debris",
        "lat": -15.72524696166788,
        "lon": -147.74542805203143,
        "alt_km": 747.9870918796923,
        "timestamp": "2025-12-24T03:53:30.041836+00:00",
        "meta_object_name": "COSMOS 2251 DEB",
        "meta_object_id": "1993-036VA",
        "meta_epoch": "2025-12-23T18:30:52.988832",
        "meta_mean_motion": 14.40707503,
        "meta_eccentricity": 0.0019398,
        "meta_inclination": 74.0313,
        "meta_ra_of_asc_node": 217.6016,
        "meta_arg_of_pericenter": 319.9697,
        "meta_mean_anomaly": 158.0769,
        "meta_ephemeris_type": 0,
        "meta_classification_type": "U",
        "meta_norad_cat_id": 34564,
        "meta_element_set_no": 999,
        "meta_rev_at_epoch": 88165,
        "meta_bstar": 0.00020734,
        "meta_mean_motion_dot": 6.37e-06,
        "meta_mean_motion_ddot": 0,
        "tle_line1": "1 34564U 93036VA  25357.77144663  .00000637  00000+0  20734-3 0  9997",
        "tle_line2": "2 34564  74.0313 217.6016 0019398 319.9697 158.0769 14.40707503881654"
      },
      "geometry": {
        "type": "Point",
        "coordinates": [
          -147.74542805203143,
          -15.72524696166788
        ]
      }
    },
    {
      "type": "Feature",
      "properties": {
        "norad_id": 34567,
        "name": "COSMOS 2251 DEB",
        "group": "cosmos-2251-debris",
        "lat": 59.74344406159797,
        "lon": 165.5995845337068,
        "alt_km": 848.6208807846951,
        "timestamp": "2025-12-24T03:53:30.041847+00:00",
        "meta_object_name": "COSMOS 2251 DEB",
        "meta_object_id": "1993-036VD",
        "meta_epoch": "2025-12-22T16:16:54.466752",
        "meta_mean_motion": 14.2402716,
        "meta_eccentricity": 0.00741599,
        "meta_inclination": 74.0409,
        "meta_ra_of_asc_node": 138.8924,
        "meta_arg_of_pericenter": 211.0276,
        "meta_mean_anomaly": 170.0812,
        "meta_ephemeris_type": 0,
        "meta_classification_type": "U",
        "meta_norad_cat_id": 34567,
        "meta_element_set_no": 999,
        "meta_rev_at_epoch": 87266,
        "meta_bstar": 0.00021099929,
        "meta_mean_motion_dot": 4.73e-06,
        "meta_mean_motion_ddot": 0,
        "tle_line1": "1 34567U 93036VD  25356.67840818  .00000473  00000+0  21100-3 0  9999",
        "tle_line2": "2 34567  74.0409 138.8924 0074159 211.0276 170.0812 14.24027160872666"
      },
      "geometry": {
        "type": "Point",
        "coordinates": [
          165.5995845337068,
          59.74344406159797
        ]
      }
    },
    {
      "type": "Feature",
      "properties": {
        "norad_id": 34569,
        "name": "COSMOS 2251 DEB",
        "group": "cosmos-2251-debris",
        "lat": -71.00973034113328,
        "lon": 54.03005407095863,
        "alt_km": 841.1800583518998,
        "timestamp": "2025-12-24T03:53:30.041857+00:00",
        "meta_object_name": "COSMOS 2251 DEB",
        "meta_object_id": "1993-036VF",
        "meta_epoch": "2025-12-22T20:37:39.103968",
        "meta_mean_motion": 14.24776526,
        "meta_eccentricity": 0.01577718,
        "meta_inclination": 73.9894,
        "meta_ra_of_asc_node": 179.8374,
        "meta_arg_of_pericenter": 5.9127,
        "meta_mean_anomaly": 56.4739,
        "meta_ephemeris_type": 0,
        "meta_classification_type": "U",
        "meta_norad_cat_id": 34569,
        "meta_element_set_no": 999,
        "meta_rev_at_epoch": 87112,
        "meta_bstar": 0.00038517693,
        "meta_mean_motion_dot": 9.95e-06,
        "meta_mean_motion_ddot": 0,
        "tle_line1": "1 34569U 93036VF  25356.85948037  .00000995  00000+0  38518-3 0  9993",
        "tle_line2": "2 34569  73.9894 179.8374 0157771   5.9127  56.4739 14.24776526871127"
      },
      "geometry": {
        "type": "Point",
        "coordinates": [
          54.03005407095863,
          -71.00973034113328
        ]
      }
    },
    {
      "type": "Feature",
      "properties": {
        "norad_id": 34570,
        "name": "COSMOS 2251 DEB",
        "group": "cosmos-2251-debris",
        "lat": -62.97192872000377,
        "lon": 52.75522583899036,
        "alt_km": 1037.1471173281434,
        "timestamp": "2025-12-24T03:53:30.041867+00:00",
        "meta_object_name": "COSMOS 2251 DEB",
        "meta_object_id": "1993-036VG",
        "meta_epoch": "2025-12-23T06:40:44.080608",
        "meta_mean_motion": 13.99837278,
        "meta_eccentricity": 0.01902095,
        "meta_inclination": 73.9564,
        "meta_ra_of_asc_node": 199.9553,
        "meta_arg_of_pericenter": 80.1017,
        "meta_mean_anomaly": 34.9685,
        "meta_ephemeris_type": 0,
        "meta_classification_type": "U",
        "meta_norad_cat_id": 34570,
        "meta_element_set_no": 999,
        "meta_rev_at_epoch": 85748,
        "meta_bstar": 0.00047470822,
        "meta_mean_motion_dot": 7.91e-06,
        "meta_mean_motion_ddot": 0,
        "tle_line1": "1 34570U 93036VG  25357.27828797  .00000791  00000+0  47471-3 0  9994",
        "tle_line2": "2 34570  73.9564 199.9553 0190209  80.1017  34.9685 13.99837278857488"
      },
      "geometry": {
        "type": "Point",
        "coordinates": [
          52.75522583899036,
          -62.97192872000377
        ]
      }
    },
    {
      "type": "Feature",
      "properties": {
        "norad_id": 34571,
        "name": "COSMOS 2251 DEB",
        "group": "cosmos-2251-debris",
        "lat": -43.4828063825838,
        "lon": 145.27735601315123,
        "alt_km": 758.8387055150815,
        "timestamp": "2025-12-24T03:53:30.041877+00:00",
        "meta_object_name": "COSMOS 2251 DEB",
        "meta_object_id": "1993-036VH",
        "meta_epoch": "2025-12-21T21:25:20.768736",
        "meta_mean_motion": 14.4895116,
        "meta_eccentricity": 0.00652122,
        "meta_inclination": 74.039,
        "meta_ra_of_asc_node": 165.2791,
        "meta_arg_of_pericenter": 198.2553,
        "meta_mean_anomaly": 161.6266,
        "meta_ephemeris_type": 0,
        "meta_classification_type": "U",
        "meta_norad_cat_id": 34571,
        "meta_element_set_no": 999,
        "meta_rev_at_epoch": 87426,
        "meta_bstar": 0.0025690074,
        "meta_mean_motion_dot": 9.985e-05,
        "meta_mean_motion_ddot": 0,
        "tle_line1": "1 34571U 93036VH  25355.89260149  .00009985  00000+0  25690-2 0  9994",
        "tle_line2": "2 34571  74.0390 165.2791 0065212 198.2553 161.6266 14.48951160874269"
      },
      "geometry": {
        "type": "Point",
        "coordinates": [
          145.27735601315123,
          -43.4828063825838
        ]
      }
    }
  ]
}